1 44945U 20001AH  23057.57964776  .00003388  00000-0  24618-3 0  9993
2 44945  53.0527 256.6287 0001693  82.2112 277.9069 15.06410860173250
1 44945U 20001AH  23057.84503391  .00002636  00000-0  19577-3 0  9998
2 44945  53.0523 255.4374 0001608  86.6727 273.4446 15.06409054173293
1 44945U 20001AH  23057.84503391  .00002636  00000-0  19577-3 0  9998
2 44945  53.0523 255.4374 0001608  86.6727 273.4446 15.06409054173293
1 44945U 20001AH  23058.50850185  .00003768  00000-0  27166-3 0  9998
2 44945  53.0519 252.4602 0001420  89.5050 270.6102 15.06405724173391
1 44945U 20001AH  23058.50850185  .00003768  00000-0  27166-3 0  9998
2 44945  53.0519 252.4602 0001420  89.5050 270.6102 15.06405724173391
1 44945U 20001AH  23059.50370499  .00000814  00000-0  73555-4 0  9997
2 44945  53.0516 247.9926 0002080  77.8272 282.2950 15.06399553173544
1 44945U 20001AH  23059.50370499  .00000814  00000-0  73555-4 0  9997
2 44945  53.0516 247.9926 0002080  77.8272 282.2950 15.06399553173544
1 44945U 20001AH  23059.83544372 -.00001985  00000-0 -11444-3 0  9996
2 44945  53.0525 246.5042 0001671  77.8474 282.2702 15.06389773173590
1 44945U 20001AH  23059.83544372 -.00001985  00000-0 -11444-3 0  9996
2 44945  53.0525 246.5042 0001671  77.8474 282.2702 15.06389773173590
1 44945U 20001AH  23060.76429756  .00002178  00000-0  16510-3 0  9990
2 44945  53.0512 242.3338 0001505  73.9139 286.2016 15.06399849173732
1 44945U 20001AH  23060.76429756  .00002178  00000-0  16510-3 0  9990
2 44945  53.0512 242.3338 0001505  73.9139 286.2016 15.06399849173732
1 44945U 20001AH  23061.75950040  .00004914  00000-0  34849-3 0  9990
2 44945  53.0508 237.8635 0001455  79.0896 281.0257 15.06404164173880
1 44945U 20001AH  23062.48931371  .00002400  00000-0  17995-3 0  9998
2 44945  53.0540 234.5900 0001660  89.3766 270.7413 15.06405532173994
1 44945U 20001AH  23062.48931371  .00002400  00000-0  17995-3 0  9998
2 44945  53.0540 234.5900 0001660  89.3766 270.7413 15.06405532173994
1 44945U 20001AH  23062.88739211  .00003874  00000-0  27875-3 0  9995
2 44945  53.0500 232.8018 0001758  82.1165 278.0023 15.06409828174051
1 44945U 20001AH  23063.15278143 -.00002659  00000-0 -15973-3 0  9996
2 44945  53.0518 231.6121 0000551 151.3378 208.7641 15.06391725174093
1 44945U 20001AH  23063.48451926 -.00000882  00000-0 -40314-4 0  9998
2 44945  53.0522 230.1205 0001112  79.1144 280.9970 15.06393329174142
1 44945U 20001AH  23063.88259483  .00010591  00000-0  72861-3 0  9993
2 44945  53.0517 228.3334 0001236  85.8561 274.2569 15.06412067174200
1 44945U 20001AH  23063.88259483  .00010591  00000-0  72861-3 0  9993
2 44945  53.0517 228.3334 0001236  85.8561 274.2569 15.06412067174200
1 44945U 20001AH  23064.74510766  .00002239  00000-0  16914-3 0  9990
2 44945  53.0503 224.4601 0001134  84.2006 275.9112 15.06397401174333
1 44945U 20001AH  23064.74510766  .00002239  00000-0  16914-3 0  9990
2 44945  53.0503 224.4601 0001134  84.2006 275.9112 15.06397401174333
1 44945U 20001AH  23065.80665790  .00001501  00000-0  11966-3 0  9999
2 44945  53.0510 219.6944 0001313  81.3202 278.7936 15.06398117174499
1 44945U 20001AH  23065.80665790  .00001501  00000-0  11966-3 0  9999
2 44945  53.0510 219.6944 0001313  81.3202 278.7936 15.06398117174499
1 44945U 20001AH  23066.13839508 -.00001765  00000-0 -99641-4 0  9997
2 44945  53.0509 218.2043 0001188  88.1088 272.0036 15.06386500174546
1 44945U 20001AH  23066.80185764  .00007576  00000-0  52675-3 0  9998
2 44945  53.0501 215.2276 0001574  87.5901 272.5268 15.06414859174641
1 44945U 20001AH  23066.80185764  .00007576  00000-0  52675-3 0  9998
2 44945  53.0501 215.2276 0001574  87.5901 272.5268 15.06414859174641
1 44945U 20001AH  23067.13359922 -.00001727  00000-0 -97077-4 0  9994
2 44945  53.0515 213.7377 0002143  78.9524 281.1706 15.06388924174690
1 44945U 20001AH  23067.79706587  .00001006  00000-0  86450-4 0  9990
2 44945  53.0500 210.7598 0001459  78.2250 281.8903 15.06399973174797
1 44945U 20001AH  23067.79706587  .00001006  00000-0  86450-4 0  9990
2 44945  53.0500 210.7598 0001459  78.2250 281.8903 15.06399973174797
1 44945U 20001AH  23068.52688195  .00006029  00000-0  42322-3 0  9995
2 44945  53.0502 207.4833 0001736  72.6766 287.4412 15.06406428174906
1 44945U 20001AH  23069.38938980  .00004340  00000-0  31003-3 0  9998
2 44945  53.0505 203.6108 0001752  95.1631 264.9558 15.06405789175036
1 44945U 20001AH  23069.65477701  .00004258  00000-0  30450-3 0  9990
2 44945  53.0526 202.4211 0001076  68.2756 291.8347 15.06405792175072
1 44945U 20001AH  23070.38459936  .00000111  00000-0  26327-4 0  9995
2 44945  53.0520 199.1449 0000730  28.6268 331.4761 15.06391871175180
1 44945U 20001AH  23070.38459936  .00000111  00000-0  26327-4 0  9995
2 44945  53.0520 199.1449 0000730  28.6268 331.4761 15.06391871175180
1 44945U 20001AH  23070.78267641  .00003141  00000-0  22967-3 0  9990
2 44945  53.0530 197.3564 0001150  97.2740 262.8380 15.06402234175240
1 44945U 20001AH  23070.78267641  .00003141  00000-0  22967-3 0  9990
2 44945  53.0530 197.3564 0001150  97.2740 262.8380 15.06402234175240
1 44945U 20001AH  23071.31345675 -.00000095  00000-0  12532-4 0  9998
2 44945  53.0519 194.9744 0001337  81.9184 278.1956 15.06392243175325
1 44945U 20001AH  23071.37980386 -.00000358  00000-0 -51796-5 0  9997
2 44945  53.0523 194.6759 0001113  83.7771 276.3345 15.06391613175330
1 44945U 20001AH  23071.71153836  .00002330  00000-0  17527-3 0  9999
2 44945  53.0526 193.1865 0001511  95.0308 265.0853 15.06396080175386
1 44945U 20001AH  23072.44135615  .00002186  00000-0  16562-3 0  9992
2 44945  53.0520 189.9106 0001257  80.8688 279.2443 15.06397468175496
1 44945U 20001AH  23072.44135615  .00002186  00000-0  16562-3 0  9992
2 44945  53.0520 189.9106 0001257  80.8688 279.2443 15.06397468175496
1 44945U 20001AH  23073.56924913  .00003180  00000-0  23223-3 0  9990
2 44945  53.0519 184.8472 0000967  93.6986 266.4114 15.06405236175669
1 44945U 20001AH  23073.56924913  .00003180  00000-0  23223-3 0  9990
2 44945  53.0519 184.8472 0000967  93.6986 266.4114 15.06405236175669
1 44945U 20001AH  23074.23269248  .00010992  00000-0  75482-3 0  9991
2 44945  53.0519 181.8697 0001216  89.2459 270.8669 15.06441744175768
1 44945U 20001AH  23074.49805868  .00018396  00000-0  12481-2 0  9998
2 44945  53.0530 180.6819 0001341  28.4292 331.6770 15.06476122175805
1 44945U 20001AH  23074.49805868  .00018396  00000-0  12481-2 0  9998
2 44945  53.0530 180.6819 0001341  28.4292 331.6770 15.06476122175805
1 44945U 20001AH  23075.16154367 -.00035391  00000-0 -23724-2 0  9992
2 44945  53.0522 177.6993 0000726 103.0260 257.0810 15.06345729175901
1 44945U 20001AH  23075.42693221 -.00044284  00000-0 -29780-2 0  9997
2 44945  53.0519 176.5079 0000796  96.4490 263.6589 15.06333679175948
1 44945U 20001AH  23075.42693221 -.00044284  00000-0 -29780-2 0  9997
2 44945  53.0519 176.5079 0000796  96.4490 263.6589 15.06333679175948
1 44945U 20001AH  23076.28950178  .00026248  00000-0  17782-2 0  9996
2 44945  53.0520 172.6365 0000921  87.7572 272.3523 15.06322582176070
1 44945U 20001AH  23076.42220146  .00028033  00000-0  18969-2 0  9999
2 44945  53.0520 172.0403 0000923  87.9023 272.2072 15.06331392176091
1 44945U 20001AH  23076.95298891  .00037100  00000-0  24979-2 0  9992
2 44945  53.0521 169.6579 0000935  80.3344 279.7750 15.06379072176175
1 44945U 20001AH  23077.55011100  .00027391  00000-0  18501-2 0  9990
2 44945  53.0521 166.9772 0000967  77.5980 282.5117 15.06410853176261
1 44945U 20001AH  23077.55011100  .00027391  00000-0  18501-2 0  9990
2 44945  53.0521 166.9772 0000967  77.5980 282.5117 15.06410853176261
1 44945U 20001AH  23078.54528925  .00031020  00000-0  20887-2 0  9992
2 44945  53.0520 162.5097 0001002  73.7783 286.3316 15.06463455176418
1 44945U 20001AH  23078.61163308  .00031162  00000-0  20979-2 0  9999
2 44945  53.0520 162.2119 0001014  73.2956 286.8144 15.06467593176422
1 44945U 20001AH  23078.61163308  .00031162  00000-0  20979-2 0  9999
2 44945  53.0520 162.2119 0001014  73.2956 286.8144 15.06467593176422
1 44945U 20001AH  23078.94336298 -.00007887  00000-0 -51083-3 0  9995
2 44945  53.0522 160.7226 0000892  91.8601 268.2490 15.06427069176479
1 44945U 20001AH  23079.54048422  .00023014  00000-0  15582-2 0  9992
2 44945  53.0517 158.0423 0001100  93.3780 266.7335 15.06415732176565
1 44945U 20001AH  23080.20393438  .00033861  00000-0  22774-2 0  9999
2 44945  53.0517 155.0638 0001144  91.9679 268.1441 15.06462032176669
1 44945U 20001AH  23080.46930929  .00029231  00000-0  19692-2 0  9990
2 44945  53.0516 153.8722 0001131  91.1147 268.9972 15.06474470176707
1 44945U 20001AH  23080.93373350  .00008463  00000-0  58580-3 0  9995
2 44945  53.0525 151.7870 0001599  70.7249 289.3913 15.06435522176776
1 44945U 20001AH  23081.46452959  .00025433  00000-0  17224-2 0  9992
2 44945  53.0516 149.4040 0001715  80.1091 280.0091 15.06351632176852
1 44945U 20001AH  23082.45974441  .00028508  00000-0  19246-2 0  9999
2 44945  53.0512 144.9365 0001921  81.8399 278.2808 15.06408231177007
1 44945U 20001AH  23082.85782631  .00026512  00000-0  17915-2 0  9995
2 44945  53.0522 143.1501 0002186  89.5920 270.5319 15.06410438177060
1 44945U 20001AH  23083.45494713  .00026552  00000-0  17943-2 0  9998
2 44945  53.0512 140.4667 0001760  87.8128 272.3062 15.06408409177150
1 44945U 20001AH  23083.85302077  .00021060  00000-0  14274-2 0  9996
2 44945  53.0516 138.6806 0001728  88.0620 272.0567 15.06429148177219
1 44945U 20001AH  23084.84819748 -.00000854  00000-0 -38381-4 0  9991
2 44945  53.0514 134.2149 0001971  89.7377 270.3837 15.06430587177362
1 44945U 20001AH  23084.84819748 -.00000854  00000-0 -38381-4 0  9991
2 44945  53.0514 134.2149 0001971  89.7377 270.3837 15.06430587177362
1 44945U 20001AH  23085.11359078 -.00011756  00000-0 -77206-3 0  9998
2 44945  53.0513 133.0214 0001664  98.9563 261.1614 15.06377379177404
1 44945U 20001AH  23085.84342482  .00020706  00000-0  14059-2 0  9998
2 44945  53.0513 129.7457 0001750  95.1818 264.9370 15.06372354177513
